{
  "type": "FeatureCollection",
  "features": [
    {
      "type": "Feature",
      "properties": {
        "norad_id": 30596,
        "name": "FENGYUN 1C DEB",
        "group": "fengyun-1c-debris",
        "lat": -39.030661739495116,
        "lon": 166.9963871647302,
        "alt_km": 647.6648938888493,
        "timestamp": "2025-12-22T09:53:37.678877+00:00",
        "meta_object_name": "FENGYUN 1C DEB",
        "meta_object_id": "1999-025AMB",
        "meta_epoch": "2025-12-20T12:16:23.179296",
        "meta_mean_motion": 14.34379571,
        "meta_eccentricity": 0.02471983,
        "meta_inclination": 98.4132,
        "meta_ra_of_asc_node": 352.0347,
        "meta_arg_of_pericenter": 265.8226,
        "meta_mean_anomaly": 225.4808,
        "meta_ephemeris_type": 0,
        "meta_classification_type": "U",
        "meta_norad_cat_id": 30596,
        "meta_element_set_no": 999,
        "meta_rev_at_epoch": 98672,
        "meta_bstar": 0.00020806481,
        "meta_mean_motion_dot": 7.7e-06,
        "meta_mean_motion_ddot": 0,
        "tle_line1": "1 30596U 99025AMB 25354.51137939  .00000770  00000+0  20806-3 0  9997",
        "tle_line2": "2 30596  98.4132 352.0347 0247198 265.8226 225.4808 14.34379571986723"
      },
      "geometry": {
        "type": "Point",
        "coordinates": [
          166.9963871647302,
          -39.030661739495116
        ]
      }
    },
    {
      "type": "Feature",
      "properties": {
        "norad_id": 30597,
        "name": "FENGYUN 1C DEB",
        "group": "fengyun-1c-debris",
        "lat": -27.785268151391573,
        "lon": -61.05940921488686,
        "alt_km": 624.1381379789682,
        "timestamp": "2025-12-22T09:53:37.678887+00:00",
        "meta_object_name": "FENGYUN 1C DEB",
        "meta_object_id": "1999-025AMC",
        "meta_epoch": "2025-12-20T19:25:14.730528",
        "meta_mean_motion": 14.93090835,
        "meta_eccentricity": 0.00463033,
        "meta_inclination": 98.9411,
        "meta_ra_of_asc_node": 292.3619,
        "meta_arg_of_pericenter": 137.173,
        "meta_mean_anomaly": 223.3108,
        "meta_ephemeris_type": 0,
        "meta_classification_type": "U",
        "meta_norad_cat_id": 30597,
        "meta_element_set_no": 999,
        "meta_rev_at_epoch": 98657,
        "meta_bstar": 0.0024964264,
        "meta_mean_motion_dot": 0.00026574,
        "meta_mean_motion_ddot": 0,
        "tle_line1": "1 30597U 99025AMC 25354.80919827  .00026574  00000+0  24964-2 0  9992",
        "tle_line2": "2 30597  98.9411 292.3619 0046303 137.1730 223.3108 14.93090835986574"
      },
      "geometry": {
        "type": "Point",
        "coordinates": [
          -61.05940921488686,
          -27.785268151391573
        ]
      }
    },
    {
      "type": "Feature",
      "properties": {
        "norad_id": 30599,
        "name": "FENGYUN 1C DEB",
        "group": "fengyun-1c-debris",
        "lat": 36.99637160983867,
        "lon": 1.229382500695126,
        "alt_km": 782.5454481441884,
        "timestamp": "2025-12-22T09:53:37.678897+00:00",
        "meta_object_name": "FENGYUN 1C DEB",
        "meta_object_id": "1999-025AME",
        "meta_epoch": "2025-12-20T00:12:57.449664",
        "meta_mean_motion": 14.19723945,
        "meta_eccentricity": 0.03019093,
        "meta_inclination": 98.602,
        "meta_ra_of_asc_node": 5.4391,
        "meta_arg_of_pericenter": 323.6948,
        "meta_mean_anomaly": 34.4074,
        "meta_ephemeris_type": 0,
        "meta_classification_type": "U",
        "meta_norad_cat_id": 30599,
        "meta_element_set_no": 999,
        "meta_rev_at_epoch": 97270,
        "meta_bstar": 0.00050499549,
        "meta_mean_motion_dot": 1.635e-05,
        "meta_mean_motion_ddot": 0,
        "tle_line1": "1 30599U 99025AME 25354.00899826  .00001635  00000+0  50500-3 0  9999",
        "tle_line2": "2 30599  98.6020   5.4391 0301909 323.6948  34.4074 14.19723945972704"
      },
      "geometry": {
        "type": "Point",
        "coordinates": [
          1.229382500695126,
          36.99637160983867
        ]
      }
    },
    {
      "type": "Feature",
      "properties": {
        "norad_id": 30600,
        "name": "FENGYUN 1C DEB",
        "group": "fengyun-1c-debris",
        "lat": 71.67032886812781,
        "lon": -85.95731570786002,
        "alt_km": 1054.3900270460908,
        "timestamp": "2025-12-22T09:53:37.678921+00:00",
        "meta_object_name": "FENGYUN 1C DEB",
        "meta_object_id": "1999-025AMF",
        "meta_epoch": "2025-12-20T14:52:23.604960",
        "meta_mean_motion": 14.07612594,
        "meta_eccentricity": 0.0326796,
        "meta_inclination": 98.3891,
        "meta_ra_of_asc_node": 298.8245,
        "meta_arg_of_pericenter": 224.7834,
        "meta_mean_anomaly": 132.6533,
        "meta_ephemeris_type": 0,
        "meta_classification_type": "U",
        "meta_norad_cat_id": 30600,
        "meta_element_set_no": 999,
        "meta_rev_at_epoch": 94543,
        "meta_bstar": 0.0014756,
        "meta_mean_motion_dot": 4.02e-05,
        "meta_mean_motion_ddot": 0,
        "tle_line1": "1 30600U 99025AMF 25354.61971765  .00004020  00000+0  14756-2 0  9995",
        "tle_line2": "2 30600  98.3891 298.8245 0326796 224.7834 132.6533 14.07612594945437"
      },
      "geometry": {
        "type": "Point",
        "coordinates": [
          -85.95731570786002,
          71.67032886812781
        ]
      }
    },
    {
      "type": "Feature",
      "properties": {
        "norad_id": 30602,
        "name": "FENGYUN 1C DEB",
        "group": "fengyun-1c-debris",
        "lat": 38.74925667736224,
        "lon": 99.03296509761074,
        "alt_km": 580.9674557050957,
        "timestamp": "2025-12-22T09:53:37.678932+00:00",
        "meta_object_name": "FENGYUN 1C DEB",
        "meta_object_id": "1999-025AMH",
        "meta_epoch": "2025-12-21T17:19:10.291296",
        "meta_mean_motion": 14.92401783,
        "meta_eccentricity": 0.0013326,
        "meta_inclination": 99.0332,
        "meta_ra_of_asc_node": 270.9063,
        "meta_arg_of_pericenter": 95.33,
        "meta_mean_anomaly": 296.9175,
        "meta_ephemeris_type": 0,
        "meta_classification_type": "U",
        "meta_norad_cat_id": 30602,
        "meta_element_set_no": 999,
        "meta_rev_at_epoch": 97939,
        "meta_bstar": 0.0064357,
        "meta_mean_motion_dot": 0.00066548,
        "meta_mean_motion_ddot": 0,
        "tle_line1": "1 30602U 99025AMH 25355.72164689  .00066548  00000+0  64357-2 0  9994",
        "tle_line2": "2 30602  99.0332 270.9063 0013326  95.3300 296.9175 14.92401783979396"
      },
      "geometry": {
        "type": "Point",
        "coordinates": [
          99.03296509761074,
          38.74925667736224
        ]
      }
    },
    {
      "type": "Feature",
      "properties": {
        "norad_id": 30603,
        "name": "FENGYUN 1C DEB",
        "group": "fengyun-1c-debris",
        "lat": -64.38755154637632,
        "lon": 36.29124056673133,
        "alt_km": 1011.9745021960453,
        "timestamp": "2025-12-22T09:53:37.678943+00:00",
        "meta_object_name": "FENGYUN 1C DEB",
        "meta_object_id": "1999-025AMJ",
        "meta_epoch": "2025-12-21T14:02:09.800160",
        "meta_mean_motion": 13.84147604,
        "meta_eccentricity": 0.018352,
        "meta_inclination": 98.4081,
        "meta_ra_of_asc_node": 17.5797,
        "meta_arg_of_pericenter": 181.2311,
        "meta_mean_anomaly": 310.5448,
        "meta_ephemeris_type": 0,
        "meta_classification_type": "U",
        "meta_norad_cat_id": 30603,
        "meta_element_set_no": 999,
        "meta_rev_at_epoch": 94998,
        "meta_bstar": 0.0010152,
        "meta_mean_motion_dot": 1.252e-05,
        "meta_mean_motion_ddot": 0,
        "tle_line1": "1 30603U 99025AMJ 25355.58483565  .00001252  00000+0  10152-2 0  9991",
        "tle_line2": "2 30603  98.4081  17.5797 0183520 181.2311 310.5448 13.84147604949988"
      },
      "geometry": {
        "type": "Point",
        "coordinates": [
          36.29124056673133,
          -64.38755154637632
        ]
      }
    },
    {
      "type": "Feature",
      "properties": {
        "norad_id": 30604,
        "name": "FENGYUN 1C DEB",
        "group": "fengyun-1c-debris",
        "lat": -67.18574076232431,
        "lon": -169.7430467104554,
        "alt_km": 816.8246111735052,
        "timestamp": "2025-12-22T09:53:37.678955+00:00",
        "meta_object_name": "FENGYUN 1C DEB",
        "meta_object_id": "1999-025AMK",
        "meta_epoch": "2025-12-22T02:05:03.357888",
        "meta_mean_motion": 14.23625624,
        "meta_eccentricity": 0.020913,
        "meta_inclination": 98.4012,
        "meta_ra_of_asc_node": 30.5138,
        "meta_arg_of_pericenter": 339.475,
        "meta_mean_anomaly": 44.8621,
        "meta_ephemeris_type": 0,
        "meta_classification_type": "U",
        "meta_norad_cat_id": 30604,
        "meta_element_set_no": 999,
        "meta_rev_at_epoch": 97972,
        "meta_bstar": 0.00027739,
        "meta_mean_motion_dot": 7.46e-06,
        "meta_mean_motion_ddot": 0,
        "tle_line1": "1 30604U 99025AMK 25356.08684442  .00000746  00000+0  27739-3 0  9992",
        "tle_line2": "2 30604  98.4012  30.5138 0209130 339.4750  44.8621 14.23625624979729"
      },
      "geometry": {
        "type": "Point",
        "coordinates": [
          -169.7430467104554,
          -67.18574076232431
        ]
      }
    }
  ]
}